<?xml version="1.0" encoding="UTF-8"?>
<ndm xmlns:xsi="http://www.w3.org/2001/XMLSchema-instance" xsi:noNamespaceSchemaLocation="https://sanaregistry.org/r/ndmxml_unqualified/ndmxml-2.0.0-master-2.0.xsd">
<omm id="CCSDS_OMM_VERS" version="2.0">
<header><CREATION_DATE/><ORIGINATOR/></header><body><segment><metadata><OBJECT_NAME>KUIPER-00035</OBJECT_NAME><OBJECT_ID>2025-088AA</OBJECT_ID><CENTER_NAME>EARTH</CENTER_NAME><REF_FRAME>TEME</REF_FRAME><TIME_SYSTEM>UTC</TIME_SYSTEM><MEAN_ELEMENT_THEORY>SGP4</MEAN_ELEMENT_THEORY></metadata><data><meanElements><EPOCH>2025-08-05T06:00:02.000160</EPOCH><MEAN_MOTION>14.94596922</MEAN_MOTION><ECCENTRICITY>.0004519</ECCENTRICITY><INCLINATION>51.8912</INCLINATION><RA_OF_ASC_NODE>351.7860</RA_OF_ASC_NODE><ARG_OF_PERICENTER>86.9228</ARG_OF_PERICENTER><MEAN_ANOMALY>163.5914</MEAN_ANOMALY></meanElements><tleParameters><EPHEMERIS_TYPE>0</EPHEMERIS_TYPE><CLASSIFICATION_TYPE>U</CLASSIFICATION_TYPE><NORAD_CAT_ID>63748</NORAD_CAT_ID><ELEMENT_SET_NO>999</ELEMENT_SET_NO><REV_AT_EPOCH>1544</REV_AT_EPOCH><BSTAR>.25137E-2</BSTAR><MEAN_MOTION_DOT>.27352E-3</MEAN_MOTION_DOT><MEAN_MOTION_DDOT>0</MEAN_MOTION_DDOT></tleParameters></data></segment></body></omm>
<omm id="CCSDS_OMM_VERS" version="2.0">
<header><CREATION_DATE/><ORIGINATOR/></header><body><segment><metadata><OBJECT_NAME>KUIPER-00037</OBJECT_NAME><OBJECT_ID>2025-088AB</OBJECT_ID><CENTER_NAME>EARTH</CENTER_NAME><REF_FRAME>TEME</REF_FRAME><TIME_SYSTEM>UTC</TIME_SYSTEM><MEAN_ELEMENT_THEORY>SGP4</MEAN_ELEMENT_THEORY></metadata><data><meanElements><EPOCH>2025-08-05T06:00:02.000160</EPOCH><MEAN_MOTION>14.97577978</MEAN_MOTION><ECCENTRICITY>.0005325</ECCENTRICITY><INCLINATION>51.8913</INCLINATION><RA_OF_ASC_NODE>350.9658</RA_OF_ASC_NODE><ARG_OF_PERICENTER>17.0020</ARG_OF_PERICENTER><MEAN_ANOMALY>168.6684</MEAN_ANOMALY></meanElements><tleParameters><EPHEMERIS_TYPE>0</EPHEMERIS_TYPE><CLASSIFICATION_TYPE>U</CLASSIFICATION_TYPE><NORAD_CAT_ID>63749</NORAD_CAT_ID><ELEMENT_SET_NO>999</ELEMENT_SET_NO><REV_AT_EPOCH>1624</REV_AT_EPOCH><BSTAR>-.13152E+0</BSTAR><MEAN_MOTION_DOT>-.1420855E-1</MEAN_MOTION_DOT><MEAN_MOTION_DDOT>0</MEAN_MOTION_DDOT></tleParameters></data></segment></body></omm>
<omm id="CCSDS_OMM_VERS" version="2.0">
<header><CREATION_DATE/><ORIGINATOR/></header><body><segment><metadata><OBJECT_NAME>KUIPER-00038</OBJECT_NAME><OBJECT_ID>2025-088AC</OBJECT_ID><CENTER_NAME>EARTH</CENTER_NAME><REF_FRAME>TEME</REF_FRAME><TIME_SYSTEM>UTC</TIME_SYSTEM><MEAN_ELEMENT_THEORY>SGP4</MEAN_ELEMENT_THEORY></metadata><data><meanElements><EPOCH>2025-08-05T06:00:02.000160</EPOCH><MEAN_MOTION>15.31094861</MEAN_MOTION><ECCENTRICITY>.0005188</ECCENTRICITY><INCLINATION>51.8744</INCLINATION><RA_OF_ASC_NODE>343.1309</RA_OF_ASC_NODE><ARG_OF_PERICENTER>86.9438</ARG_OF_PERICENTER><MEAN_ANOMALY>22.6396</MEAN_ANOMALY></meanElements><tleParameters><EPHEMERIS_TYPE>0</EPHEMERIS_TYPE><CLASSIFICATION_TYPE>U</CLASSIFICATION_TYPE><NORAD_CAT_ID>63750</NORAD_CAT_ID><ELEMENT_SET_NO>999</ELEMENT_SET_NO><REV_AT_EPOCH>1535</REV_AT_EPOCH><BSTAR>-.27926E-1</BSTAR><MEAN_MOTION_DOT>-.790333E-2</MEAN_MOTION_DOT><MEAN_MOTION_DDOT>0</MEAN_MOTION_DDOT></tleParameters></data></segment></body></omm>
<omm id="CCSDS_OMM_VERS" version="2.0">
<header><CREATION_DATE/><ORIGINATOR/></header><body><segment><metadata><OBJECT_NAME>KUIPER-00039</OBJECT_NAME><OBJECT_ID>2025-134A</OBJECT_ID><CENTER_NAME>EARTH</CENTER_NAME><REF_FRAME>TEME</REF_FRAME><TIME_SYSTEM>UTC</TIME_SYSTEM><MEAN_ELEMENT_THEORY>SGP4</MEAN_ELEMENT_THEORY></metadata><data><meanElements><EPOCH>2025-08-05T04:00:10.765728</EPOCH><MEAN_MOTION>15.35237511</MEAN_MOTION><ECCENTRICITY>.0008167</ECCENTRICITY><INCLINATION>51.8672</INCLINATION><RA_OF_ASC_NODE>125.2163</RA_OF_ASC_NODE><ARG_OF_PERICENTER>266.2960</ARG_OF_PERICENTER><MEAN_ANOMALY>93.7092</MEAN_ANOMALY></meanElements><tleParameters><EPHEMERIS_TYPE>0</EPHEMERIS_TYPE><CLASSIFICATION_TYPE>U</CLASSIFICATION_TYPE><NORAD_CAT_ID>64500</NORAD_CAT_ID><ELEMENT_SET_NO>999</ELEMENT_SET_NO><REV_AT_EPOCH>734</REV_AT_EPOCH><BSTAR>.95559E-3</BSTAR><MEAN_MOTION_DOT>.32985E-3</MEAN_MOTION_DOT><MEAN_MOTION_DDOT>0</MEAN_MOTION_DDOT></tleParameters></data></segment></body></omm>
<omm id="CCSDS_OMM_VERS" version="2.0">
<header><CREATION_DATE/><ORIGINATOR/></header><body><segment><metadata><OBJECT_NAME>KUIPER-00040</OBJECT_NAME><OBJECT_ID>2025-134B</OBJECT_ID><CENTER_NAME>EARTH</CENTER_NAME><REF_FRAME>TEME</REF_FRAME><TIME_SYSTEM>UTC</TIME_SYSTEM><MEAN_ELEMENT_THEORY>SGP4</MEAN_ELEMENT_THEORY></metadata><data><meanElements><EPOCH>2025-08-04T22:00:01.999584</EPOCH><MEAN_MOTION>15.16156759</MEAN_MOTION><ECCENTRICITY>.001276</ECCENTRICITY><INCLINATION>51.8787</INCLINATION><RA_OF_ASC_NODE>127.9890</RA_OF_ASC_NODE><ARG_OF_PERICENTER>272.4963</ARG_OF_PERICENTER><MEAN_ANOMALY>80.4831</MEAN_ANOMALY></meanElements><tleParameters><EPHEMERIS_TYPE>0</EPHEMERIS_TYPE><CLASSIFICATION_TYPE>U</CLASSIFICATION_TYPE><NORAD_CAT_ID>64501</NORAD_CAT_ID><ELEMENT_SET_NO>999</ELEMENT_SET_NO><REV_AT_EPOCH>728</REV_AT_EPOCH><BSTAR>-.11652E-2</BSTAR><MEAN_MOTION_DOT>-.2306E-3</MEAN_MOTION_DOT><MEAN_MOTION_DDOT>0</MEAN_MOTION_DDOT></tleParameters></data></segment></body></omm>
<omm id="CCSDS_OMM_VERS" version="2.0">
<header><CREATION_DATE/><ORIGINATOR/></header><body><segment><metadata><OBJECT_NAME>KUIPER-00041</OBJECT_NAME><OBJECT_ID>2025-134C</OBJECT_ID><CENTER_NAME>EARTH</CENTER_NAME><REF_FRAME>TEME</REF_FRAME><TIME_SYSTEM>UTC</TIME_SYSTEM><MEAN_ELEMENT_THEORY>SGP4</MEAN_ELEMENT_THEORY></metadata><data><meanElements><EPOCH>2025-08-04T18:12:09.590976</EPOCH><MEAN_MOTION>15.16354129</MEAN_MOTION><ECCENTRICITY>.0008268</ECCENTRICITY><INCLINATION>51.8734</INCLINATION><RA_OF_ASC_NODE>129.0930</RA_OF_ASC_NODE><ARG_OF_PERICENTER>268.3639</ARG_OF_PERICENTER><MEAN_ANOMALY>91.6391</MEAN_ANOMALY></meanElements><tleParameters><EPHEMERIS_TYPE>0</EPHEMERIS_TYPE><CLASSIFICATION_TYPE>U</CLASSIFICATION_TYPE><NORAD_CAT_ID>64502</NORAD_CAT_ID><ELEMENT_SET_NO>999</ELEMENT_SET_NO><REV_AT_EPOCH>771</REV_AT_EPOCH><BSTAR>.89104E-3</BSTAR><MEAN_MOTION_DOT>.1725E-3</MEAN_MOTION_DOT><MEAN_MOTION_DDOT>0</MEAN_MOTION_DDOT></tleParameters></data></segment></body></omm>
<omm id="CCSDS_OMM_VERS" version="2.0">
<header><CREATION_DATE/><ORIGINATOR/></header><body><segment><metadata><OBJECT_NAME>KUIPER-00042</OBJECT_NAME><OBJECT_ID>2025-134D</OBJECT_ID><CENTER_NAME>EARTH</CENTER_NAME><REF_FRAME>TEME</REF_FRAME><TIME_SYSTEM>UTC</TIME_SYSTEM><MEAN_ELEMENT_THEORY>SGP4</MEAN_ELEMENT_THEORY></metadata><data><meanElements><EPOCH>2025-08-05T06:00:02.000160</EPOCH><MEAN_MOTION>15.22772107</MEAN_MOTION><ECCENTRICITY>.0010683</ECCENTRICITY><INCLINATION>51.8720</INCLINATION><RA_OF_ASC_NODE>125.5026</RA_OF_ASC_NODE><ARG_OF_PERICENTER>265.8940</ARG_OF_PERICENTER><MEAN_ANOMALY>216.2639</MEAN_ANOMALY></meanElements><tleParameters><EPHEMERIS_TYPE>0</EPHEMERIS_TYPE><CLASSIFICATION_TYPE>U</CLASSIFICATION_TYPE><NORAD_CAT_ID>64503</NORAD_CAT_ID><ELEMENT_SET_NO>999</ELEMENT_SET_NO><REV_AT_EPOCH>734</REV_AT_EPOCH><BSTAR>-.45703E-1</BSTAR><MEAN_MOTION_DOT>-.999379E-2</MEAN_MOTION_DOT><MEAN_MOTION_DDOT>0</MEAN_MOTION_DDOT></tleParameters></data></segment></body></omm>
<omm id="CCSDS_OMM_VERS" version="2.0">
<header><CREATION_DATE/><ORIGINATOR/></header><body><segment><metadata><OBJECT_NAME>KUIPER-00043</OBJECT_NAME><OBJECT_ID>2025-134E</OBJECT_ID><CENTER_NAME>EARTH</CENTER_NAME><REF_FRAME>TEME</REF_FRAME><TIME_SYSTEM>UTC</TIME_SYSTEM><MEAN_ELEMENT_THEORY>SGP4</MEAN_ELEMENT_THEORY></metadata><data><meanElements><EPOCH>2025-08-05T04:04:48.298944</EPOCH><MEAN_MOTION>15.34767213</MEAN_MOTION><ECCENTRICITY>.00081</ECCENTRICITY><INCLINATION>51.8686</INCLINATION><RA_OF_ASC_NODE>125.2408</RA_OF_ASC_NODE><ARG_OF_PERICENTER>265.4194</ARG_OF_PERICENTER><MEAN_ANOMALY>94.5866</MEAN_ANOMALY></meanElements><tleParameters><EPHEMERIS_TYPE>0</EPHEMERIS_TYPE><CLASSIFICATION_TYPE>U</CLASSIFICATION_TYPE><NORAD_CAT_ID>64504</NORAD_CAT_ID><ELEMENT_SET_NO>999</ELEMENT_SET_NO><REV_AT_EPOCH>772</REV_AT_EPOCH><BSTAR>.16479E-3</BSTAR><MEAN_MOTION_DOT>.5264E-4</MEAN_MOTION_DOT><MEAN_MOTION_DDOT>0</MEAN_MOTION_DDOT></tleParameters></data></segment></body></omm>

</ndm>
