KUIPER-00035            
1 63748U 25088AA  25217.25002315  .00027352  00000+0  25137-2 0  9994
2 63748  51.8912 351.7860 0004519  86.9228 163.5914 14.94596922 15444
KUIPER-00037            
1 63749U 25088AB  25217.25002315 -.01420855  00000+0 -13152+0 0  9994
2 63749  51.8913 350.9658 0005325  17.0020 168.6684 14.97577978 16245
KUIPER-00038            
1 63750U 25088AC  25217.25002315 -.00790333  00000+0 -27926-1 0  9992
2 63750  51.8744 343.1309 0005188  86.9438  22.6396 15.31094861 15355
KUIPER-00039            
1 64500U 25134A   25217.16679127  .00032985  00000+0  95559-3 0  9998
2 64500  51.8672 125.2163 0008167 266.2960  93.7092 15.35237511  7346
KUIPER-00040            
1 64501U 25134B   25216.91668981 -.00023060  00000+0 -11652-2 0  9994
2 64501  51.8787 127.9890 0012760 272.4963  80.4831 15.16156759  7286
KUIPER-00041            
1 64502U 25134C   25216.75844434  .00017250  00000+0  89104-3 0  9996
2 64502  51.8734 129.0930 0008268 268.3639  91.6391 15.16354129  7713
KUIPER-00042            
1 64503U 25134D   25217.25002315 -.00999379  00000+0 -45703-1 0  9995
2 64503  51.8720 125.5026 0010683 265.8940 216.2639 15.22772107  7343
KUIPER-00043            
1 64504U 25134E   25217.17000346  .00005264  00000+0  16479-3 0  9998
2 64504  51.8686 125.2408 0008100 265.4194  94.5866 15.34767213  7720
